{
  "links" : {
    "next" : "https://api.nasa.gov/neo/rest/v1/feed?start_date=2000-09-23&end_date=2000-09-23&detailed=true&api_key=t0TVs3DtDT2H8Oy2Zy8m2eVrNsAVKAexjcZXUckd",
    "prev" : "https://api.nasa.gov/neo/rest/v1/feed?start_date=2000-09-21&end_date=2000-09-21&detailed=true&api_key=t0TVs3DtDT2H8Oy2Zy8m2eVrNsAVKAexjcZXUckd",
    "self" : "https://api.nasa.gov/neo/rest/v1/feed?start_date=2000-09-22&end_date=2000-09-22&detailed=true&api_key=t0TVs3DtDT2H8Oy2Zy8m2eVrNsAVKAexjcZXUckd"
  },
  "element_count" : 4,
  "near_earth_objects" : {
    "2000-09-22" : [ {
      "links" : {
        "self" : "https://api.nasa.gov/neo/rest/v1/neo/3067565?api_key=t0TVs3DtDT2H8Oy2Zy8m2eVrNsAVKAexjcZXUckd"
      },
      "neo_reference_id" : "3067565",
      "name" : "(2000 SS43)",
      "nasa_jpl_url" : "http://ssd.jpl.nasa.gov/sbdb.cgi?sstr=3067565",
      "absolute_magnitude_h" : 24.8,
      "estimated_diameter" : {
        "kilometers" : {
          "estimated_diameter_min" : 0.0291443905,
          "estimated_diameter_max" : 0.0651688382
        },
        "meters" : {
          "estimated_diameter_min" : 29.1443904535,
          "estimated_diameter_max" : 65.1688382168
        },
        "miles" : {
          "estimated_diameter_min" : 0.018109479,
          "estimated_diameter_max" : 0.0404940262
        },
        "feet" : {
          "estimated_diameter_min" : 95.6180819754,
          "estimated_diameter_max" : 213.8085311752
        }
      },
      "is_potentially_hazardous_asteroid" : false,
      "close_approach_data" : [ {
        "close_approach_date" : "2000-09-22",
        "epoch_date_close_approach" : 969606000000,
        "relative_velocity" : {
          "kilometers_per_second" : "5.7901696754",
          "kilometers_per_hour" : "20844.6108313572",
          "miles_per_hour" : "12952.0305468508"
        },
        "miss_distance" : {
          "astronomical" : "0.0210522186",
          "lunar" : "8.1893129349",
          "kilometers" : "3149367.25",
          "miles" : "1956926"
        },
        "orbiting_body" : "Earth"
      } ],
      "orbital_data" : {
        "orbit_id" : "12",
        "orbit_determination_date" : "2017-04-06 09:16:49",
        "orbit_uncertainty" : "8",
        "minimum_orbit_intersection" : ".0206023",
        "jupiter_tisserand_invariant" : "4.055",
        "epoch_osculation" : "2451844.5",
        "eccentricity" : ".4093895969545896",
        "semi_major_axis" : "1.73129191514456",
        "inclination" : "4.093273708887485",
        "ascending_node_longitude" : "6.962746087337848",
        "orbital_period" : "832.0585320780292",
        "perihelion_distance" : "1.022519015792789",
        "perihelion_argument" : "353.11524652",
        "aphelion_distance" : "2.44006481449633",
        "perihelion_time" : "2451810.141080601869",
        "mean_anomaly" : "14.86579429987408",
        "mean_motion" : ".432661869473192",
        "equinox" : "J2000"
      }
    }, {
      "links" : {
        "self" : "https://api.nasa.gov/neo/rest/v1/neo/3511833?api_key=t0TVs3DtDT2H8Oy2Zy8m2eVrNsAVKAexjcZXUckd"
      },
      "neo_reference_id" : "3511833",
      "name" : "(2010 EH43)",
      "nasa_jpl_url" : "http://ssd.jpl.nasa.gov/sbdb.cgi?sstr=3511833",
      "absolute_magnitude_h" : 18.8,
      "estimated_diameter" : {
        "kilometers" : {
          "estimated_diameter_min" : 0.4619074603,
          "estimated_diameter_max" : 1.0328564805
        },
        "meters" : {
          "estimated_diameter_min" : 461.9074602816,
          "estimated_diameter_max" : 1032.8564805039
        },
        "miles" : {
          "estimated_diameter_min" : 0.2870159005,
          "estimated_diameter_max" : 0.6417870641
        },
        "feet" : {
          "estimated_diameter_min" : 1515.4444719902,
          "estimated_diameter_max" : 3388.6368554964
        }
      },
      "is_potentially_hazardous_asteroid" : false,
      "close_approach_data" : [ {
        "close_approach_date" : "2000-09-22",
        "epoch_date_close_approach" : 969606000000,
        "relative_velocity" : {
          "kilometers_per_second" : "18.7482497784",
          "kilometers_per_hour" : "67493.699202366",
          "miles_per_hour" : "41937.9599293812"
        },
        "miss_distance" : {
          "astronomical" : "0.4053891775",
          "lunar" : "157.696395874",
          "kilometers" : "60645360",
          "miles" : "37683280"
        },
        "orbiting_body" : "Earth"
      } ],
      "orbital_data" : {
        "orbit_id" : "39",
        "orbit_determination_date" : "2016-11-02 07:18:37",
        "orbit_uncertainty" : "0",
        "minimum_orbit_intersection" : ".224962",
        "jupiter_tisserand_invariant" : "4.857",
        "epoch_osculation" : "2457600.5",
        "eccentricity" : ".04400484905449784",
        "semi_major_axis" : "1.277835746700622",
        "inclination" : "37.54560259848378",
        "ascending_node_longitude" : "5.429736962529145",
        "orbital_period" : "527.6075195027039",
        "perihelion_distance" : "1.22160477755062",
        "perihelion_argument" : "196.0425519998794",
        "aphelion_distance" : "1.334066715850624",
        "perihelion_time" : "2457401.233577998892",
        "mean_anomaly" : "135.9645366465087",
        "mean_motion" : ".6823253776582217",
        "equinox" : "J2000"
      }
    }, {
      "links" : {
        "self" : "https://api.nasa.gov/neo/rest/v1/neo/3557844?api_key=t0TVs3DtDT2H8Oy2Zy8m2eVrNsAVKAexjcZXUckd"
      },
      "neo_reference_id" : "3557844",
      "name" : "(2011 DW)",
      "nasa_jpl_url" : "http://ssd.jpl.nasa.gov/sbdb.cgi?sstr=3557844",
      "absolute_magnitude_h" : 23.0,
      "estimated_diameter" : {
        "kilometers" : {
          "estimated_diameter_min" : 0.0667659413,
          "estimated_diameter_max" : 0.1492931834
        },
        "meters" : {
          "estimated_diameter_min" : 66.7659413495,
          "estimated_diameter_max" : 149.2931834393
        },
        "miles" : {
          "estimated_diameter_min" : 0.0414864197,
          "estimated_diameter_max" : 0.0927664547
        },
        "feet" : {
          "estimated_diameter_min" : 219.0483710172,
          "estimated_diameter_max" : 489.807047955
        }
      },
      "is_potentially_hazardous_asteroid" : false,
      "close_approach_data" : [ {
        "close_approach_date" : "2000-09-22",
        "epoch_date_close_approach" : 969606000000,
        "relative_velocity" : {
          "kilometers_per_second" : "18.7749289228",
          "kilometers_per_hour" : "67589.7441219295",
          "miles_per_hour" : "41997.6385073178"
        },
        "miss_distance" : {
          "astronomical" : "0.3680807672",
          "lunar" : "143.1834106445",
          "kilometers" : "55064100",
          "miles" : "34215244"
        },
        "orbiting_body" : "Earth"
      } ],
      "orbital_data" : {
        "orbit_id" : "12",
        "orbit_determination_date" : "2017-04-06 08:54:23",
        "orbit_uncertainty" : "6",
        "minimum_orbit_intersection" : ".0349837",
        "jupiter_tisserand_invariant" : "6.896",
        "epoch_osculation" : "2458000.5",
        "eccentricity" : ".2751814496603729",
        "semi_major_axis" : ".8397911377048145",
        "inclination" : "25.0658065265282",
        "ascending_node_longitude" : "159.5676539204966",
        "orbital_period" : "281.0964479446135",
        "perihelion_distance" : ".6086961950192697",
        "perihelion_argument" : "152.6734172787703",
        "aphelion_distance" : "1.070886080390359",
        "perihelion_time" : "2457974.058990637371",
        "mean_anomaly" : "33.86297991364878",
        "mean_motion" : "1.280699214210396",
        "equinox" : "J2000"
      }
    }, {
      "links" : {
        "self" : "https://api.nasa.gov/neo/rest/v1/neo/2477524?api_key=t0TVs3DtDT2H8Oy2Zy8m2eVrNsAVKAexjcZXUckd"
      },
      "neo_reference_id" : "2477524",
      "name" : "477524 (2010 EH43)",
      "nasa_jpl_url" : "http://ssd.jpl.nasa.gov/sbdb.cgi?sstr=2477524",
      "absolute_magnitude_h" : 18.8,
      "estimated_diameter" : {
        "kilometers" : {
          "estimated_diameter_min" : 0.4619074603,
          "estimated_diameter_max" : 1.0328564805
        },
        "meters" : {
          "estimated_diameter_min" : 461.9074602816,
          "estimated_diameter_max" : 1032.8564805039
        },
        "miles" : {
          "estimated_diameter_min" : 0.2870159005,
          "estimated_diameter_max" : 0.6417870641
        },
        "feet" : {
          "estimated_diameter_min" : 1515.4444719902,
          "estimated_diameter_max" : 3388.6368554964
        }
      },
      "is_potentially_hazardous_asteroid" : false,
      "close_approach_data" : [ {
        "close_approach_date" : "2000-09-22",
        "epoch_date_close_approach" : 969606000000,
        "relative_velocity" : {
          "kilometers_per_second" : "18.7482413656",
          "kilometers_per_hour" : "67493.6689163036",
          "miles_per_hour" : "41937.9411107999"
        },
        "miss_distance" : {
          "astronomical" : "0.4053882771",
          "lunar" : "157.6960296631",
          "kilometers" : "60645220",
          "miles" : "37683192"
        },
        "orbiting_body" : "Earth"
      } ],
      "orbital_data" : {
        "orbit_id" : "41",
        "orbit_determination_date" : "2017-04-06 09:18:59",
        "orbit_uncertainty" : "1",
        "minimum_orbit_intersection" : ".227139",
        "jupiter_tisserand_invariant" : "4.857",
        "epoch_osculation" : "2458000.5",
        "eccentricity" : ".04405957066649944",
        "semi_major_axis" : "1.27778450890344",
        "inclination" : "37.54464724051859",
        "ascending_node_longitude" : "5.428741371266376",
        "orbital_period" : "527.5757863443321",
        "perihelion_distance" : "1.22148587203685",
        "perihelion_argument" : "195.9706790465547",
        "aphelion_distance" : "1.334083145770029",
        "perihelion_time" : "2457928.727542692559",
        "mean_anomaly" : "48.9751146649766",
        "mean_motion" : ".6823664188504651",
        "equinox" : "J2000"
      }
    } ]
  }
}